NORAD_CAT_ID,OBJECT_NAME,OBJECT_TYPE,EPOCH,MEAN_MOTION,ECCENTRICITY,INCLINATION,RA_OF_ASC_NODE,ARG_OF_PERICENTER,MEAN_ANOMALY,BSTAR,MEAN_MOTION_DOT,MEAN_MOTION_DDOT,TLE_LINE0,TLE_LINE1,TLE_LINE2,SEMIMAJOR_AXIS,PERIOD,APOGEE,PERIGEE,DECAYED
51963.0,STARLINK-3675,PAYLOAD,2023-02-17 23:45:31,15.08816656,0.0001791,53.215,357.6975,85.7559,274.3638,0.0006824,0.00010582,0.0,0 STARLINK-3675,1 51963U 22025H   23048.98994393  .00010582  00000-0  68240-3 0  9995,2 51963  53.2150 357.6975 0001791  85.7559 274.3638 15.08816656 53851,6917.952,95.439,541.056,538.578,0.0
51963.0,STARLINK-3675,PAYLOAD,2023-02-18 06:07:03,15.08827859,0.0001792,53.2155,356.5044,102.268,257.8513,0.00086323,0.00013472,0.0,0 STARLINK-3675,1 51963U 22025H   23049.25490466  .00013472  00000-0  86323-3 0  9991,2 51963  53.2155 356.5044 0001792 102.2680 257.8513 15.08827859 52801,6917.917,95.438,541.022,538.543,0.0
51963.0,STARLINK-3675,PAYLOAD,2023-02-19 02:47:03,15.08887718,0.000163,53.2155,352.641,87.3341,272.7837,0.0018175,0.00028794,0.0,0 STARLINK-3675,1 51963U 22025H   23050.11601094  .00028794  00000-0  18175-2 0  9991,2 51963  53.2155 352.6410 0001630  87.3341 272.7837 15.08887718 54024,6917.735,95.435,540.727,538.472,0.0
51963.0,STARLINK-3675,PAYLOAD,2023-02-19 05:57:49,15.08899557,0.0001643,53.2157,352.047,87.0259,273.0921,0.0019887,0.00031556,0.0,0 STARLINK-3675,1 51963U 22025H   23050.24848576  .00031556  00000-0  19887-2 0  9994,2 51963  53.2157 352.0470 0001643  87.0259 273.0921 15.08899557 52957,6917.698,95.434,540.7,538.427,0.0
51963.0,STARLINK-3675,PAYLOAD,2023-02-20 02:37:50,15.08849472,9.57e-05,53.2163,348.1808,84.773,275.3371,0.0014473,0.00022827,0.0,0 STARLINK-3675,1 51963U 22025H   23051.10960845  .00022827  00000-0  14473-2 0  9991,2 51963  53.2163 348.1808 0000957  84.7730 275.3371 15.08849472 54171,6917.851,95.437,540.378,539.054,0.0
51963.0,STARLINK-3675,PAYLOAD,2023-02-20 12:10:09,15.08817122,0.0001136,53.2162,346.3959,83.6495,276.4626,0.0018879,0.00029867,0.0,0 STARLINK-3675,1 51963U 22025H   23051.50704880  .00029867  00000-0  18879-2 0  9995,2 51963  53.2162 346.3959 0001136  83.6495 276.4626 15.08817122 53141,6917.95,95.439,540.601,539.029,0.0
51963.0,STARLINK-3675,PAYLOAD,2023-02-21 12:00:55,15.08861071,0.0001097,53.2174,341.9383,88.3902,271.7215,0.0012267,0.000193,0.0,0 STARLINK-3675,1 51963U 22025H   23052.50064587  .00019300  00000-0  12267-2 0  9995,2 51963  53.2174 341.9383 0001097  88.3902 271.7215 15.08861071 54388,6917.816,95.436,540.44,538.922,0.0
51963.0,STARLINK-3675,PAYLOAD,2023-02-22 02:19:24,15.08851106,8.6e-05,53.2157,339.2606,74.8373,285.2714,0.0016869,0.00026669,0.0,0 STARLINK-3675,1 51963U 22025H   23053.09680671  .00026669  00000-0  16869-2 0  9996,2 51963  53.2157 339.2606 0000860  74.8373 285.2714 15.08851106 54478,6917.846,95.437,540.306,539.117,0.0
51963.0,STARLINK-3675,PAYLOAD,2023-02-22 05:30:10,15.08859207,9.51e-05,53.2159,338.6669,75.615,284.4947,0.0019841,0.00031447,0.0,0 STARLINK-3675,1 51963U 22025H   23053.22928542  .00031447  00000-0  19841-2 0  9996,2 51963  53.2159 338.6669 0000951  75.6150 284.4947 15.08859207 53406,6917.822,95.436,540.345,539.029,0.0
51963.0,STARLINK-3675,PAYLOAD,2023-02-23 00:34:48,15.0884475,0.0001171,53.2156,335.0984,89.2742,270.8384,0.001848,0.00029249,0.0,0 STARLINK-3675,1 51963U 22025H   23054.02417813  .00029249  00000-0  18480-2 0  9994,2 51963  53.2156 335.0984 0001171  89.2742 270.8384 15.08844750 54612,6917.866,95.437,540.541,538.921,0.0
51963.0,STARLINK-3675,PAYLOAD,2023-02-23 03:45:35,15.08846162,0.0001274,53.2151,334.5032,83.1441,276.9696,0.0017919,0.0002835,0.0,0 STARLINK-3675,1 51963U 22025H   23054.15665903  .00028350  00000-0  17919-2 0  9991,2 51963  53.2151 334.5032 0001274  83.1441 276.9696 15.08846162 53541,6917.862,95.437,540.608,538.845,0.0
51963.0,STARLINK-3675,PAYLOAD,2023-02-23 19:39:26,15.08871723,0.0001332,53.2145,331.5292,82.529,277.5853,0.00141,0.00022243,0.0,0 STARLINK-3675,1 51963U 22025H   23054.81905139  .00022243  00000-0  14100-2 0  9996,2 51963  53.2145 331.5292 0001332  82.5290 277.5853 15.08871723 54734,6917.783,95.436,540.57,538.727,0.0
51963.0,STARLINK-3675,PAYLOAD,2023-02-24 00:25:34,15.08884999,0.000117,53.2139,330.638,88.9121,271.2005,0.0017418,0.00027576,0.0,0 STARLINK-3675,1 51963U 22025H   23055.01776570  .00027576  00000-0  17418-2 0  9993,2 51963  53.2139 330.6380 0001170  88.9121 271.2005 15.08884999 53679,6917.743,95.435,540.417,538.798,0.0
51963.0,STARLINK-3675,PAYLOAD,2023-02-24 17:54:49,15.08849082,0.0001969,53.2145,327.3655,88.1238,271.998,0.00074736,0.00011629,0.0,0 STARLINK-3675,1 51963U 22025H   23055.74640596  .00011629  00000-0  74736-3 0  9990,2 51963  53.2145 327.3655 0001969  88.1238 271.9980 15.08849082 54877,6917.853,95.437,541.08,538.356,0.0
51963.0,STARLINK-3675,PAYLOAD,2023-02-25 03:27:08,15.08837286,0.0001589,53.2155,325.5804,69.7564,290.3599,0.00017246,2.458e-05,0.0,0 STARLINK-3675,1 51963U 22025H   23056.14384933  .00002458  00000-0  17246-3 0  9998,2 51963  53.2155 325.5804 0001589  69.7564 290.3599 15.08837286 54930,6917.889,95.438,540.853,538.654,0.0
51963.0,STARLINK-3675,PAYLOAD,2023-02-25 20:56:23,15.08841044,0.0001731,53.215,322.3095,67.1557,292.9618,0.00069178,0.00010739,0.0,0 STARLINK-3675,1 51963U 22025H   23056.87249446  .00010739  00000-0  69178-3 0  9999,2 51963  53.2150 322.3095 0001731  67.1557 292.9618 15.08841044 53953,6917.877,95.437,540.94,538.545,0.0
51963.0,STARLINK-3675,PAYLOAD,2023-02-26 03:17:55,15.08854317,0.0001689,53.2146,321.1184,71.9489,288.1687,0.00089066,0.00013921,0.0,0 STARLINK-3675,1 51963U 22025H   23057.13745111  .00013921  00000-0  89066-3 0  9993,2 51963  53.2146 321.1184 0001689  71.9489 288.1687 15.08854317 55089,6917.837,95.437,540.87,538.533,0.0
51963.0,STARLINK-3675,PAYLOAD,2023-02-27 03:08:41,15.08869578,0.0001781,53.2151,316.6558,77.1426,282.9765,0.00068711,0.00010673,0.0,0 STARLINK-3675,1 51963U 22025H   23058.13103889  .00010673  00000-0  68711-3 0  9999,2 51963  53.2151 316.6558 0001781  77.1426 282.9765 15.08869578 55232,6917.79,95.436,540.887,538.423,0.0
51963.0,STARLINK-3675,PAYLOAD,2023-02-28 02:59:27,15.08850286,0.0001124,53.2158,312.1995,78.063,282.0488,3.9952e-05,3.48e-06,0.0,0 STARLINK-3675,1 51963U 22025H   23059.12462604  .00000348  00000-0  39952-4 0  9996,2 51963  53.2158 312.1995 0001124  78.0630 282.0488 15.08850286 55388,6917.849,95.437,540.492,538.936,0.0
51963.0,STARLINK-3675,PAYLOAD,2023-02-28 22:04:09,15.0876896,0.0001188,53.2151,308.627,102.8872,257.2253,-0.00021809,-3.75e-05,0.0,0 STARLINK-3675,1 51963U 22025H   23059.91955188 -.00003750  00000-0 -21809-3 0  9990,2 51963  53.2151 308.6270 0001188 102.8872 257.2253 15.08768960 54415,6918.098,95.442,540.784,539.141,0.0
51963.0,STARLINK-3675,PAYLOAD,2023-03-01 01:14:56,15.08772157,0.0001171,53.2151,308.0352,85.325,274.7876,0.00022056,3.218e-05,0.0,0 STARLINK-3675,1 51963U 22025H   23060.05203895  .00003218  00000-0  22056-3 0  9990,2 51963  53.2151 308.0352 0001171  85.3250 274.7876 15.08772157 55528,6918.088,95.442,540.763,539.143,0.0
51963.0,STARLINK-3675,PAYLOAD,2023-03-01 04:25:42,15.08784393,0.000102,53.2141,307.4404,84.9395,275.1714,0.0010541,0.00016502,0.0,0 STARLINK-3675,1 51963U 22025H   23060.18452383  .00016502  00000-0  10541-2 0  9997,2 51963  53.2141 307.4404 0001020  84.9395 275.1714 15.08784393 55549,6918.05,95.441,540.621,539.21,0.0
51963.0,STARLINK-3675,PAYLOAD,2023-03-01 21:54:56,15.08860622,0.0001249,53.2146,304.1706,72.5156,287.5973,0.0010088,0.00015813,0.0,0 STARLINK-3675,1 51963U 22025H   23060.91315599  .00015813  00000-0  10088-2 0  9995,2 51963  53.2146 304.1706 0001249  72.5156 287.5973 15.08860622 54569,6917.817,95.436,540.546,538.818,0.0
51963.0,STARLINK-3675,PAYLOAD,2023-03-02 02:41:05,15.08896507,7.86e-05,53.214,303.2779,87.785,272.3232,0.0019881,0.00031544,0.0,0 STARLINK-3675,1 51963U 22025H   23061.11186723  .00031544  00000-0  19881-2 0  9992,2 51963  53.2140 303.2779 0000786  87.7850 272.3232 15.08896507 55682,6917.708,95.434,540.116,539.029,0.0
51963.0,STARLINK-3675,PAYLOAD,2023-03-02 20:10:18,15.08886371,8.72e-05,53.2139,300.0076,26.3691,333.7345,0.0014685,0.0002319,0.0,0 STARLINK-3675,1 51963U 22025H   23061.84049370  .00023190  00000-0  14685-2 0  9993,2 51963  53.2139 300.0076 0000872  26.3691 333.7345 15.08886371 55790,6917.739,95.435,540.207,539.0,0.0
51963.0,STARLINK-3675,PAYLOAD,2023-03-03 07:18:04,15.08617746,6.7e-05,53.2144,297.9273,239.9144,120.1782,0.0020188,0.00031792,0.0,0 STARLINK-3675,1 51963U 22025H   23062.30422274  .00031792  00000-0  20188-2 0  9995,2 51963  53.2144 297.9273 0000670 239.9144 120.1782 15.08617746 55869,6918.56,95.452,540.888,539.961,0.0
51963.0,STARLINK-3675,PAYLOAD,2023-03-03 15:15:11,15.082912,0.0001015,53.2137,296.4402,96.3284,263.7824,0.0032601,0.00051197,0.0,0 STARLINK-3675,1 51963U 22025H   23062.63554573  .00051197  00000-0  32601-2 0  9993,2 51963  53.2137 296.4402 0001015  96.3284 263.7824 15.08291200 55913,6919.558,95.472,542.126,540.721,0.0
51963.0,STARLINK-3675,PAYLOAD,2023-03-03 21:36:54,15.08169326,8.38e-05,53.2145,295.2496,52.0833,308.0235,-0.0086763,-0.00133354,0.0,0 STARLINK-3675,1 51963U 22025H   23062.90063170 -.00133354  00000-0 -86763-2 0  9997,2 51963  53.2145 295.2496 0000838  52.0833 308.0235 15.08169326 54868,6919.931,95.48,542.376,541.216,0.0
51963.0,STARLINK-3675,PAYLOAD,2023-03-04 03:58:39,15.08145209,0.0001268,53.2135,294.06,70.1339,289.979,-0.0069461,-0.00107141,0.0,0 STARLINK-3675,1 51963U 22025H   23063.16572945 -.00107141  00000-0 -69461-2 0  9992,2 51963  53.2135 294.0600 0001268  70.1339 289.9790 15.08145209 55993,6920.005,95.482,542.747,540.992,0.0
51963.0,STARLINK-3675,PAYLOAD,2023-03-04 21:28:28,15.08053867,0.0001357,53.2131,290.7926,55.852,304.2601,0.00033158,4.883e-05,0.0,0 STARLINK-3675,1 51963U 22025H   23063.89476996  .00004883  00000-0  33158-3 0  9993,2 51963  53.2131 290.7926 0001357  55.8520 304.2601 15.08053867 55017,6920.284,95.487,543.088,541.21,0.0
